{
  "schema": "int-telemetry-real-tle-snapshot/v1",
  "source": "celestrak",
  "group": "STARLINK",
  "format": "celestrak-gp-json",
  "source_url": "https://celestrak.org/NORAD/elements/gp.php?NAME=STARLINK&FORMAT=JSON",
  "downloaded_at": "2026-07-07T07:29:27.338Z",
  "generated_at": "2026-07-07T07:29:37.186Z",
  "fingerprint": "4a165085",
  "shell_id": "starlink-real-43deg-490km",
  "catalog_count": 10705,
  "shell_count": 3263,
  "selected_count": 348,
  "mean_altitude_km": 490.18,
  "mean_inclination_deg": 43.0022,
  "mean_mean_motion_rev_per_day": 15.27582862,
  "layout": {
    "planes": 6,
    "satellites_per_plane": 58,
    "selection_strategy": "target-shell-raan-clusters-even-slot-sampling",
    "raan_cluster_threshold_deg": 3,
    "target_inclination_deg": 43,
    "target_altitude_km": 490,
    "selected_shell_key": "43.0deg-500km",
    "target_shell_distance": 0.46
  },
  "satellites": [
    {
      "satellite_id": "P06-S23",
      "norad_id": 58239,
      "satellite_name": "STARLINK-30847",
      "cospar_id": "2023-171K",
      "shell_id": "starlink-real-43deg-490km",
      "plane_id": 5,
      "slot_id": 22,
      "epoch": "2026-07-06T10:33:55.116864",
      "inclination": 43.0035,
      "raan": 334.7837999999999,
      "eccentricity": 0.00011506,
      "argument_of_perigee": 274.03739999999993,
      "mean_anomaly": 86.03460000000001,
      "mean_motion": 15.27569043,
      "bstar": -0.0000450875,
      "status": "active",
      "raw_omm": {
        "OBJECT_NAME": "STARLINK-30847",
        "OBJECT_ID": "2023-171K",
        "EPOCH": "2026-07-06T10:33:55.116864",
        "MEAN_MOTION": 15.27569043,
        "ECCENTRICITY": 0.00011506,
        "INCLINATION": 43.0035,
        "RA_OF_ASC_NODE": 334.7838,
        "ARG_OF_PERICENTER": 274.0374,
        "MEAN_ANOMALY": 86.0346,
        "EPHEMERIS_TYPE": 0,
        "CLASSIFICATION_TYPE": "U",
        "NORAD_CAT_ID": 58239,
        "ELEMENT_SET_NO": 999,
        "REV_AT_EPOCH": 14789,
        "BSTAR": -0.0000450875,
        "MEAN_MOTION_DOT": -0.00001502,
        "MEAN_MOTION_DDOT": 0
      },
      "source": "celestrak",
      "source_url": "https://celestrak.org/NORAD/elements/gp.php?NAME=STARLINK&FORMAT=JSON",
      "catalog_fingerprint": "4a165085"
    },
    {
      "satellite_id": "P06-S24",
      "norad_id": 55336,
      "satellite_name": "STARLINK-5655",
      "cospar_id": "2023-013F",
      "shell_id": "starlink-real-43deg-490km",
      "plane_id": 5,
      "slot_id": 23,
      "epoch": "2026-07-06T10:33:09.650592",
      "inclination": 43.0021,
      "raan": 338.0552,
      "eccentricity": 0.00011446,
      "argument_of_perigee": 264.2642000000001,
      "mean_anomaly": 95.80799999999999,
      "mean_motion": 15.27546452,
      "bstar": 0.00019971297,
      "status": "active",
      "raw_omm": {
        "OBJECT_NAME": "STARLINK-5655",
        "OBJECT_ID": "2023-013F",
        "EPOCH": "2026-07-06T10:33:09.650592",
        "MEAN_MOTION": 15.27546452,
        "ECCENTRICITY": 0.00011446,
        "INCLINATION": 43.0021,
        "RA_OF_ASC_NODE": 338.0552,
        "ARG_OF_PERICENTER": 264.2642,
        "MEAN_ANOMALY": 95.808,
        "EPHEMERIS_TYPE": 0,
        "CLASSIFICATION_TYPE": "U",
        "NORAD_CAT_ID": 55336,
        "ELEMENT_SET_NO": 999,
        "REV_AT_EPOCH": 19000,
        "BSTAR": 0.00019971297,
        "MEAN_MOTION_DOT": 0.00005232,
        "MEAN_MOTION_DDOT": 0
      },
      "source": "celestrak",
      "source_url": "https://celestrak.org/NORAD/elements/gp.php?NAME=STARLINK&FORMAT=JSON",
      "catalog_fingerprint": "4a165085"
    },
    {
      "satellite_id": "P06-S25",
      "norad_id": 57882,
      "satellite_name": "STARLINK-30339",
      "cospar_id": "2023-144U",
      "shell_id": "starlink-real-43deg-490km",
      "plane_id": 5,
      "slot_id": 24,
      "epoch": "2026-07-06T10:30:16.099776",
      "inclination": 43.0011,
      "raan": 334.9801,
      "eccentricity": 0.00012247,
      "argument_of_perigee": 270.8227999999999,
      "mean_anomaly": 89.24829999999997,
      "mean_motion": 15.27544595,
      "bstar": -0.000028779516,
      "status": "active",
      "raw_omm": {
        "OBJECT_NAME": "STARLINK-30339",
        "OBJECT_ID": "2023-144U",
        "EPOCH": "2026-07-06T10:30:16.099776",
        "MEAN_MOTION": 15.27544595,
        "ECCENTRICITY": 0.00012247,
        "INCLINATION": 43.0011,
        "RA_OF_ASC_NODE": 334.9801,
        "ARG_OF_PERICENTER": 270.8228,
        "MEAN_ANOMALY": 89.2483,
        "EPHEMERIS_TYPE": 0,
        "CLASSIFICATION_TYPE": "U",
        "NORAD_CAT_ID": 57882,
        "ELEMENT_SET_NO": 999,
        "REV_AT_EPOCH": 15579,
        "BSTAR": -0.000028779516,
        "MEAN_MOTION_DOT": -0.00001053,
        "MEAN_MOTION_DDOT": 0
      },
      "source": "celestrak",
      "source_url": "https://celestrak.org/NORAD/elements/gp.php?NAME=STARLINK&FORMAT=JSON",
      "catalog_fingerprint": "4a165085"
    },
    {
      "satellite_id": "P06-S26",
      "norad_id": 58241,
      "satellite_name": "STARLINK-30843",
      "cospar_id": "2023-171M",
      "shell_id": "starlink-real-43deg-490km",
      "plane_id": 5,
      "slot_id": 25,
      "epoch": "2026-07-05T18:46:47.105760",
      "inclination": 43.0013,
      "raan": 338.4344,
      "eccentricity": 0.0001278,
      "argument_of_perigee": 284.0294,
      "mean_anomaly": 76.04149999999998,
      "mean_motion": 15.27568196,
      "bstar": -0.000044108387,
      "status": "active",
      "raw_omm": {
        "OBJECT_NAME": "STARLINK-30843",
        "OBJECT_ID": "2023-171M",
        "EPOCH": "2026-07-05T18:46:47.105760",
        "MEAN_MOTION": 15.27568196,
        "ECCENTRICITY": 0.0001278,
        "INCLINATION": 43.0013,
        "RA_OF_ASC_NODE": 338.4344,
        "ARG_OF_PERICENTER": 284.0294,
        "MEAN_ANOMALY": 76.0415,
        "EPHEMERIS_TYPE": 0,
        "CLASSIFICATION_TYPE": "U",
        "NORAD_CAT_ID": 58241,
        "ELEMENT_SET_NO": 999,
        "REV_AT_EPOCH": 14781,
        "BSTAR": -0.000044108387,
        "MEAN_MOTION_DOT": -0.00001475,
        "MEAN_MOTION_DDOT": 0
      },
      "source": "celestrak",
      "source_url": "https://celestrak.org/NORAD/elements/gp.php?NAME=STARLINK&FORMAT=JSON",
      "catalog_fingerprint": "4a165085"
    },
    {
      "satellite_id": "P06-S27",
      "norad_id": 55383,
      "satellite_name": "STARLINK-5531",
      "cospar_id": "2023-013BE",
      "shell_id": "starlink-real-43deg-490km",
      "plane_id": 5,
      "slot_id": 26,
      "epoch": "2026-07-06T10:27:38.180448",
      "inclination": 43.004,
      "raan": 338.1069,
      "eccentricity": 0.00020505,
      "argument_of_perigee": 269.5745999999999,
      "mean_anomaly": 90.4871,
      "mean_motion": 15.27564493,
      "bstar": -0.000054845247,
      "status": "active",
      "raw_omm": {
        "OBJECT_NAME": "STARLINK-5531",
        "OBJECT_ID": "2023-013BE",
        "EPOCH": "2026-07-06T10:27:38.180448",
        "MEAN_MOTION": 15.27564493,
        "ECCENTRICITY": 0.00020505,
        "INCLINATION": 43.004,
        "RA_OF_ASC_NODE": 338.1069,
        "ARG_OF_PERICENTER": 269.5746,
        "MEAN_ANOMALY": 90.4871,
        "EPHEMERIS_TYPE": 0,
        "CLASSIFICATION_TYPE": "U",
        "NORAD_CAT_ID": 55383,
        "ELEMENT_SET_NO": 999,
        "REV_AT_EPOCH": 19000,
        "BSTAR": -0.000054845247,
        "MEAN_MOTION_DOT": -0.00001771,
        "MEAN_MOTION_DDOT": 0
      },
      "source": "celestrak",
      "source_url": "https://celestrak.org/NORAD/elements/gp.php?NAME=STARLINK&FORMAT=JSON",
      "catalog_fingerprint": "4a165085"
    },
    {
      "satellite_id": "P06-S28",
      "norad_id": 58244,
      "satellite_name": "STARLINK-30854",
      "cospar_id": "2023-171Q",
      "shell_id": "starlink-real-43deg-490km",
      "plane_id": 5,
      "slot_id": 27,
      "epoch": "2026-07-05T18:43:06.986208",
      "inclination": 43.0047,
      "raan": 338.42679999999996,
      "eccentricity": 0.00015233,
      "argument_of_perigee": 265.2046,
      "mean_anomaly": 94.8632,
      "mean_motion": 15.27552668,
      "bstar": -0.00016611989,
      "status": "active",
      "raw_omm": {
        "OBJECT_NAME": "STARLINK-30854",
        "OBJECT_ID": "2023-171Q",
        "EPOCH": "2026-07-05T18:43:06.986208",
        "MEAN_MOTION": 15.27552668,
        "ECCENTRICITY": 0.00015233,
        "INCLINATION": 43.0047,
        "RA_OF_ASC_NODE": 338.4268,
        "ARG_OF_PERICENTER": 265.2046,
        "MEAN_ANOMALY": 94.8632,
        "EPHEMERIS_TYPE": 0,
        "CLASSIFICATION_TYPE": "U",
        "NORAD_CAT_ID": 58244,
        "ELEMENT_SET_NO": 999,
        "REV_AT_EPOCH": 14779,
        "BSTAR": -0.00016611989,
        "MEAN_MOTION_DOT": -0.00004827,
        "MEAN_MOTION_DDOT": 0
      },
      "source": "celestrak",
      "source_url": "https://celestrak.org/NORAD/elements/gp.php?NAME=STARLINK&FORMAT=JSON",
      "catalog_fingerprint": "4a165085"
    }
  ]
}