STARLINK-5655           
1 55336U 23013F   26187.43969503  .00005232  00000+0  19971-3 0  9995
2 55336  43.0021 338.0552 0001144 264.2642  95.8080 15.27546452190007
STARLINK-5531           
1 55383U 23013BE  26187.43585857 -.00001771  00000+0 -54845-4 0  9999
2 55383  43.0040 338.1069 0002050 269.5746  90.4871 15.27564493190008
STARLINK-30339          
1 57882U 23144U   26187.43768634 -.00001053  00000+0 -28780-4 0  9998
2 57882  43.0011 334.9801 0001224 270.8228  89.2483 15.27544595155795
STARLINK-30847          
1 58239U 23171K   26187.44022126 -.00001502  00000+0 -45087-4 0  9993
2 58239  43.0035 334.7838 0001150 274.0374  86.0346 15.27569043147892
STARLINK-30843          
1 58241U 23171M   26186.78248965 -.00001475  00000+0 -44108-4 0  9995
2 58241  43.0013 338.4344 0001278 284.0294  76.0415 15.27568196147813
STARLINK-30854          
1 58244U 23171Q   26186.77994197 -.00004827  00000+0 -16612-3 0  9994
2 58244  43.0047 338.4268 0001523 265.2046  94.8632 15.27552668147790
